TDRS 13                 
1 42915U 17047A   26176.37935360 -.00000092  00000+0  00000+0 0  9998
2 42915   3.4536   2.9490 0015003 106.9519 288.7545  1.00272591 32436
QZS-3 (MICHIBIKI-3)     
1 42917U 17048A   26176.58725306 -.00000337  00000+0  00000+0 0  9993
2 42917   0.0655 150.6053 0002248 299.6870 161.8873  1.00272640 32346
AMAZONAS 5              
1 42934U 17053A   26175.01579412 -.00000275  00000+0  00000+0 0  9991
2 42934   0.0291 328.4439 0001951  87.3334 161.0747  1.00268513 32112
ASIASAT 9               
1 42942U 17057A   26176.50322576  .00000000  00000+0  00000+0 0  9991
2 42942   0.0426  53.3547 0002311  31.3870 132.2222  1.00263477 31942
INTELSAT 37E (IS-37E)   
1 42950U 17059A   26176.24627916  .00000000  00000+0  00000+0 0  9999
2 42950   0.0263  16.2605 0003094 103.0907 224.6854  1.00268809 32144
BSAT-4A                 
1 42951U 17059B   26175.33481917 -.00000343  00000+0  00000+0 0  9999
2 42951   0.0344   8.8025 0004207  62.7346  71.3157  1.00272334 31873
QZS-4 (MICHIBIKI-4)     
1 42965U 17062A   26176.33665516 -.00000360  00000+0  00000+0 0  9997
2 42965  40.1041 343.3808 0746739 268.2453 280.8214  1.00297191 31888
SES-11 (ECHOSTAR 105)   
1 42967U 17063A   26176.50419366 -.00000079  00000+0  00000+0 0  9996
2 42967   0.0340 302.1080 0002932 149.9033 258.1965  1.00272955 31805
KOREASAT 5A             
1 42984U 17067A   26176.40476241 -.00000348  00000+0  00000+0 0  9992
2 42984   0.0056 353.3787 0000851  90.6271  88.4104  1.00271320 31617
ALCOMSAT 1              
1 43039U 17078A   26176.37745029  .00000000  00000+0  00000+0 0  9999
2 43039   0.0195   1.4176 0002663  88.7137 294.4668  1.00270175 31372
SBIRS GEO-3 (USA 282)   
1 43162U 18009A   26176.57740694  .00000136  00000+0  00000+0 0  9996
2 43162   2.1899  12.5117 0002238  72.6695 236.9950  1.00272853 30920
AL YAH 3                
1 43174U 18012A   26176.37840362 -.00000147  00000+0  00000+0 0  9997
2 43174   1.5732  83.0225 0004116   8.3984 298.2059  1.00272212 30929
SES-14                  
1 43175U 18012B   26175.51751752 -.00000270  00000+0  00000+0 0  9994
2 43175   0.0183  32.4366 0001157  58.9659 320.0654  1.00271424  7091
GOES 17                 
1 43226U 18022A   26176.50722700 -.00000173  00000+0  00000+0 0  9995
2 43226   0.9581  85.5723 0000648  23.1564 258.0030  1.00272912 30501
HISPASAT 30W-6          
1 43228U 18023A   26175.16445993 -.00000209  00000+0  00000+0 0  9995
2 43228   0.0461  46.3751 0006043  28.4050 226.7322  1.00273784 30470
SUPERBIRD-B3            
1 43271U 18033A   26176.52420987 -.00000082  00000+0  00000+0 0  9990
2 43271   0.0109 317.2396 0001502 150.9189 156.2103  1.00271357 30143
HYLAS 4                 
1 43272U 18033B   26175.80542227  .00000000  00000+0  00000+0 0  9992
2 43272   0.0258  22.8939 0001030  96.9112  49.5742  1.00269267 30142
IRNSS-1I                
1 43286U 18035A   26175.79975266  .00000066  00000+0  00000+0 0  9992
2 43286  28.7725  74.0767 0017621 182.3144 359.3363  1.00275960 30158
USA 283                 
1 43339U 18036A   26170.53794801  .00000000  00000+0  00000+0 0  9991
2 43339   0.0091  53.6723 0000086  77.7836 104.0737  1.00268506 25313
COSMOS 2526             
1 43432U 18037A   26176.33648183 -.00000335  00000+0  00000+0 0  9993
2 43432   0.0284  52.9066 0000818 195.8503 273.9048  1.00272220 30044
APSTAR-6C               
1 43450U 18041A   26176.18747626 -.00000308  00000+0  00000+0 0  9993
2 43450   0.0224 345.3863 0000806  22.6044 106.8458  1.00271895 29893
BANGABANDHUSAT-1        
1 43463U 18044A   26176.50322576  .00000000  00000+0  00000+0 0  9997
2 43463   0.0219  34.7147 0002200  61.9719 117.2134  1.00268217 29790
SES-12                  
1 43488U 18049A   26175.90487203 -.00000260  00000+0  00000+0 0  9990
2 43488   0.0123   7.4810 0000485 300.7127  25.6053  1.00271664 29494
FENGYUN 2H              
1 43491U 18050A   26176.54066663 -.00000122  00000+0  00000+0 0  9997
2 43491   3.0534  78.9832 0001655 125.1149 343.5656  1.00269775 29522
BEIDOU-2 IGSO-7         
1 43539U 18057A   26175.91061939 -.00000019  00000+0  00000+0 0  9993
2 43539  55.1969 162.9895 0104999 238.0321 309.1489  1.00249104 29200
TELSTAR 19V             
1 43562U 18059A   26176.51251370 -.00000270  00000+0  00000+0 0  9997
2 43562   0.0099  97.1794 0002944  17.6772 280.2965  1.00270954 29221
TELKOM 4 (MERAH PUTIH)  
1 43587U 18064A   26176.54636032 -.00000334  00000+0  00000+0 0  9996
2 43587   0.0141  55.5151 0001690  63.6849  99.1627  1.00270409 28961
TELSTAR 18V             
1 43611U 18069A   26176.58725306 -.00000284  00000+0  00000+0 0  9990
2 43611   0.0144 320.6653 0002113 131.1381 171.3193  1.00270646 28726
AZERSPACE 2 (IS-38)     
1 43632U 18074A   26176.17741404  .00000146  00000+0  00000+0 0  9997
2 43632   0.0035  82.5969 0001586  10.3273 289.3716  1.00272596 28528
HORIZONS-3E             
1 43633U 18074B   26175.13266341 -.00000024  00000+0  00000+0 0  9991
2 43633   0.0084 244.9552 0000546  64.2971 179.8035  1.00270268 28412
AEHF-4 (USA 288)        
1 43651U 18079A   26176.51164703 -.00000266  00000+0  00000+0 0  9996
2 43651   1.4347   4.7056 0060164 355.9458  29.6659  1.00270495 28384
BEIDOU-3 G1             
1 43683U 18085A   26176.57460942 -.00000101  00000+0  00000+0 0  9996
2 43683   2.8902  97.1454 0008477 351.1216 192.2318  1.00270933 28148
