OBJECT_NAME,OBJECT_ID,EPOCH,MEAN_MOTION,ECCENTRICITY,INCLINATION,RA_OF_ASC_NODE,ARG_OF_PERICENTER,MEAN_ANOMALY,EPHEMERIS_TYPE,CLASSIFICATION_TYPE,NORAD_CAT_ID,ELEMENT_SET_NO,REV_AT_EPOCH,BSTAR,MEAN_MOTION_DOT,MEAN_MOTION_DDOT
TDRS 13,2017-047A,2026-06-25T09:06:16.151040,1.00272591,.0015003,3.4536,2.9490,106.9519,288.7545,0,U,42915,999,3243,0,-.92E-6,0
QZS-3 (MICHIBIKI-3),2017-048A,2026-06-25T14:05:38.664384,1.00272640,.00022487,0.0655,150.6053,299.6870,161.8873,0,U,42917,999,3234,0,-.337E-5,0
AMAZONAS 5,2017-053A,2026-06-24T00:22:44.611968,1.00268513,.00019519,0.0291,328.4439,87.3334,161.0747,0,U,42934,999,3211,0,-.275E-5,0
ASIASAT 9,2017-057A,2026-06-25T12:04:38.705664,1.00263477,.00023117,0.0426,53.3547,31.3870,132.2222,0,U,42942,999,3194,0,0,0
INTELSAT 37E (IS-37E),2017-059A,2026-06-25T05:54:38.519424,1.00268809,.00030941,0.0263,16.2605,103.0907,224.6854,0,U,42950,999,3214,0,0,0
BSAT-4A,2017-059B,2026-06-24T08:02:08.376288,1.00272334,.00042078,0.0344,8.8025,62.7346,71.3157,0,U,42951,999,3187,0,-.343E-5,0
QZS-4 (MICHIBIKI-4),2017-062A,2026-06-25T08:04:47.005824,1.00297191,.07467394,40.1041,343.3808,268.2453,280.8214,0,U,42965,999,3188,0,-.36E-5,0
SES-11 (ECHOSTAR 105),2017-063A,2026-06-25T12:06:02.332224,1.00272955,.00029324,0.0340,302.1080,149.9033,258.1965,0,U,42967,999,3180,0,-.79E-6,0
KOREASAT 5A,2017-067A,2026-06-25T09:42:51.472224,1.00271320,.00008517,0.0056,353.3787,90.6271,88.4104,0,U,42984,999,3161,0,-.348E-5,0
ALCOMSAT 1,2017-078A,2026-06-25T09:03:31.705056,1.00270175,.0002663,0.0195,1.4176,88.7137,294.4668,0,U,43039,999,3137,0,0,0
SBIRS GEO-3 (USA 282),2018-009A,2026-06-25T13:51:27.959616,1.00272853,.00022382,2.1899,12.5117,72.6695,236.9950,0,U,43162,999,3092,0,.136E-5,0
AL YAH 3,2018-012A,2026-06-25T09:04:54.072768,1.00272212,.00041162,1.5732,83.0225,8.3984,298.2059,0,U,43174,999,3092,0,-.147E-5,0
SES-14,2018-012B,2026-06-24T12:25:13.513728,1.00271424,.00011576,0.0183,32.4366,58.9659,320.0654,0,U,43175,999,709,0,-.27E-5,0
GOES 17,2018-022A,2026-06-25T12:10:24.412800,1.00272912,.00006481,0.9581,85.5723,23.1564,258.0030,0,U,43226,999,3050,0,-.173E-5,0
HISPASAT 30W-6,2018-023A,2026-06-24T03:56:49.337952,1.00273784,.00060437,0.0461,46.3751,28.4050,226.7322,0,U,43228,999,3047,0,-.209E-5,0
SUPERBIRD-B3,2018-033A,2026-06-25T12:34:51.732768,1.00271357,.00015028,0.0109,317.2396,150.9189,156.2103,0,U,43271,999,3014,0,-.82E-6,0
HYLAS 4,2018-033B,2026-06-24T19:19:48.484128,1.00269267,.00010305,0.0258,22.8939,96.9112,49.5742,0,U,43272,999,3014,0,0,0
IRNSS-1I,2018-035A,2026-06-24T19:11:38.629824,1.00275960,.00176215,28.7725,74.0767,182.3144,359.3363,0,U,43286,999,3015,0,.66E-6,0
USA 283,2018-036A,2026-06-19T12:54:38.708064,1.00268506,.0000086,0.0091,53.6723,77.7836,104.0737,0,U,43339,999,2531,0,0,0
COSMOS 2526,2018-037A,2026-06-25T08:04:32.030112,1.00272220,.00008184,0.0284,52.9066,195.8503,273.9048,0,U,43432,999,3004,0,-.335E-5,0
APSTAR-6C,2018-041A,2026-06-25T04:29:57.948864,1.00271895,.0000806,0.0224,345.3863,22.6044,106.8458,0,U,43450,999,2989,0,-.308E-5,0
BANGABANDHUSAT-1,2018-044A,2026-06-25T12:04:38.705664,1.00268217,.00022009,0.0219,34.7147,61.9719,117.2134,0,U,43463,999,2979,0,0,0
SES-12,2018-049A,2026-06-24T21:43:00.943392,1.00271664,.00004852,0.0123,7.4810,300.7127,25.6053,0,U,43488,999,2949,0,-.26E-5,0
FENGYUN 2H,2018-050A,2026-06-25T12:58:33.596832,1.00269775,.00016558,3.0534,78.9832,125.1149,343.5656,0,U,43491,999,2952,0,-.122E-5,0
BEIDOU-2 IGSO-7,2018-057A,2026-06-24T21:51:17.515296,1.00249104,.01049999,55.1969,162.9895,238.0321,309.1489,0,U,43539,999,2920,0,-.19E-6,0
TELSTAR 19V,2018-059A,2026-06-25T12:18:01.183680,1.00270954,.00029445,0.0099,97.1794,17.6772,280.2965,0,U,43562,999,2922,0,-.27E-5,0
TELKOM 4 (MERAH PUTIH),2018-064A,2026-06-25T13:06:45.531648,1.00270409,.00016908,0.0141,55.5151,63.6849,99.1627,0,U,43587,999,2896,0,-.334E-5,0
TELSTAR 18V,2018-069A,2026-06-25T14:05:38.664384,1.00270646,.00021137,0.0144,320.6653,131.1381,171.3193,0,U,43611,999,2872,0,-.284E-5,0
AZERSPACE 2 (IS-38),2018-074A,2026-06-25T04:15:28.573056,1.00272596,.00015866,0.0035,82.5969,10.3273,289.3716,0,U,43632,999,2852,0,.146E-5,0
HORIZONS-3E,2018-074B,2026-06-24T03:11:02.118624,1.00270268,.00005468,0.0084,244.9552,64.2971,179.8035,0,U,43633,999,2841,0,-.24E-6,0
AEHF-4 (USA 288),2018-079A,2026-06-25T12:16:46.303392,1.00270495,.00601649,1.4347,4.7056,355.9458,29.6659,0,U,43651,999,2838,0,-.266E-5,0
BEIDOU-3 G1,2018-085A,2026-06-25T13:47:26.253888,1.00270933,.00084776,2.8902,97.1454,351.1216,192.2318,0,U,43683,999,2814,0,-.101E-5,0
